IRIDIUM 63              
1 25286U 98021B   25094.76085614  .00000752  00000+0  25008-3 0  9991
2 25286  86.3933 112.9464 0002372  94.3236 265.8232 14.36460445413301
IRIDIUM 69              
1 25319U 98026A   25094.78997101  .00000952  00000+0  29092-3 0  9997
2 25319  86.3951 126.4465 0000225 172.8456 187.2746 14.40869150412497
IRIDIUM 71              
1 25320U 98026B   25094.80670704  .00000758  00000+0  22950-3 0  9999
2 25320  86.3938 121.1430 0002161  34.3822 325.7517 14.41068324413028
IRIDIUM 73              
1 25344U 98032C   25094.65059069  .00001517  00000+0  37408-3 0  9998
2 25344  86.4366  78.0481 0001804  96.7096 263.4315 14.51576786419896
IRIDIUM 82              
1 25467U 98051A   25094.65791305  .00036840  00000+0  11863-2 0  9994
2 25467  86.3701 145.7769 0092090 213.4478 146.0934 15.27933061412718
